NORAD_CAT_ID,OBJECT_NAME,OBJECT_TYPE,EPOCH,MEAN_MOTION,ECCENTRICITY,INCLINATION,RA_OF_ASC_NODE,ARG_OF_PERICENTER,MEAN_ANOMALY,BSTAR,MEAN_MOTION_DOT,MEAN_MOTION_DDOT,TLE_LINE0,TLE_LINE1,TLE_LINE2,SEMIMAJOR_AXIS,PERIOD,APOGEE,PERIGEE,DECAYED
52133.0,STARLINK-3707,PAYLOAD,2024-07-03 13:20:44,15.08836304,0.000127,53.2154,306.0733,94.1106,266.0032,7.097e-06,-1.75e-06,0.0,0 STARLINK-3707,1 52133U 22029AX  24185.55606843 -.00000175  00000-0  70970-5 0  9998,2 52133  53.2154 306.0733 0001270  94.1106 266.0032 15.08836304128221,6917.892,95.438,540.635,538.878,0.0
52133.0,STARLINK-3707,PAYLOAD,2024-07-04 13:11:30,15.08842675,0.0001363,53.2177,301.6185,97.5561,262.5586,0.00011829,1.595e-05,0.0,0 STARLINK-3707,1 52133U 22029AX  24186.54966287  .00001595  00000-0  11829-3 0  9991,2 52133  53.2177 301.6185 0001363  97.5561 262.5586 15.08842675128372,6917.872,95.437,540.68,538.794,0.0
52133.0,STARLINK-3707,PAYLOAD,2024-07-04 14:46:53,15.08844747,0.0001278,53.2175,301.3221,99.3788,260.7349,0.00014259,1.982e-05,0.0,0 STARLINK-3707,1 52133U 22029AX  24186.61590102  .00001982  00000-0  14259-3 0  9998,2 52133  53.2175 301.3221 0001278  99.3788 260.7349 15.08844747128384,6917.866,95.437,540.615,538.847,0.0
52133.0,STARLINK-3707,PAYLOAD,2024-07-05 13:02:18,15.08836482,0.0001459,53.2181,297.1612,108.7998,251.3153,9.0435e-05,1.151e-05,0.0,0 STARLINK-3707,1 52133U 22029AX  24187.54326879  .00001151  00000-0  90435-4 0  9998,2 52133  53.2181 297.1612 0001459 108.7998 251.3153 15.08836482128528,6917.891,95.438,540.765,538.747,0.0
52133.0,STARLINK-3707,PAYLOAD,2024-07-05 14:37:41,15.0883655,0.0001453,53.2182,296.8638,107.6475,252.4676,8.8114e-05,1.115e-05,0.0,0 STARLINK-3707,1 52133U 22029AX  24187.60950902  .00001115  00000-0  88114-4 0  9996,2 52133  53.2182 296.8638 0001453 107.6475 252.4676 15.08836550128534,6917.891,95.438,540.761,538.751,0.0
52133.0,STARLINK-3707,PAYLOAD,2024-07-06 14:28:28,15.08839848,0.0001347,53.2175,292.4009,90.1813,269.9334,-3.0059e-05,-7.66e-06,0.0,0 STARLINK-3707,1 52133U 22029AX  24188.60311162 -.00000766  00000-0 -30059-4 0  9994,2 52133  53.2175 292.4009 0001347  90.1813 269.9334 15.08839848128687,6917.881,95.438,540.678,538.814,0.0
52133.0,STARLINK-3707,PAYLOAD,2024-07-06 16:03:51,15.08842274,0.0001563,53.2189,292.1008,89.7149,270.4022,-5.2237e-06,-3.71e-06,0.0,0 STARLINK-3707,1 52133U 22029AX  24188.66934941 -.00000371  00000-0 -52237-5 0  9991,2 52133  53.2189 292.1008 0001563  89.7149 270.4022 15.08842274128693,6917.873,95.437,540.82,538.657,0.0
52133.0,STARLINK-3707,PAYLOAD,2024-07-07 00:00:47,15.08840204,0.0001186,53.2169,290.6148,88.9693,271.1435,-3.5782e-05,-8.57e-06,0.0,0 STARLINK-3707,1 52133U 22029AX  24189.00054962 -.00000857  00000-0 -35782-4 0  9990,2 52133  53.2169 290.6148 0001186  88.9693 271.1435 15.08840204128748,6917.88,95.438,540.565,538.924,0.0
52133.0,STARLINK-3707,PAYLOAD,2024-07-08 12:34:40,15.08820013,0.0001334,53.2169,283.7729,92.0967,268.0178,0.00039361,5.979e-05,0.0,0 STARLINK-3707,1 52133U 22029AX  24190.52407517  .00005979  00000-0  39361-3 0  9991,2 52133  53.2169 283.7729 0001334  92.0967 268.0178 15.08820013128971,6917.941,95.439,540.729,538.884,0.0
52133.0,STARLINK-3707,PAYLOAD,2024-07-08 23:42:21,15.08844233,0.0001282,53.2168,281.6914,90.8352,269.2787,8.8878e-05,1.127e-05,0.0,0 STARLINK-3707,1 52133U 22029AX  24190.98774434  .00001127  00000-0  88878-4 0  9995,2 52133  53.2168 281.6914 0001282  90.8352 269.2787 15.08844233129047,6917.867,95.437,540.619,538.846,0.0
52133.0,STARLINK-3707,PAYLOAD,2024-07-09 12:25:26,15.08844749,0.0001372,53.2171,279.3143,90.3028,269.8122,5.9325e-05,6.56e-06,0.0,0 STARLINK-3707,1 52133U 22029AX  24191.51766449  .00000656  00000-0  59325-4 0  9993,2 52133  53.2171 279.3143 0001372  90.3028 269.8122 15.08844749129124,6917.866,95.437,540.68,538.782,0.0
52133.0,STARLINK-3707,PAYLOAD,2024-07-10 12:16:14,15.08832077,0.0001326,53.2168,274.8523,92.7105,267.4039,-5.6263e-05,-1.183e-05,0.0,0 STARLINK-3707,1 52133U 22029AX  24192.51127726 -.00001183  00000-0 -56263-4 0  9999,2 52133  53.2168 274.8523 0001326  92.7105 267.4039 15.08832077129271,6917.905,95.438,540.687,538.852,0.0
52133.0,STARLINK-3707,PAYLOAD,2024-07-10 15:27:00,15.08831601,0.0001327,53.217,274.2574,93.6978,266.4166,-5.6872e-05,-1.193e-05,0.0,0 STARLINK-3707,1 52133U 22029AX  24192.64375813 -.00001193  00000-0 -56872-4 0  9992,2 52133  53.2170 274.2574 0001327  93.6978 266.4166 15.08831601129297,6917.906,95.438,540.689,538.853,0.0
52133.0,STARLINK-3707,PAYLOAD,2024-07-11 12:07:00,15.0884623,0.0001257,53.2163,270.3943,95.4522,264.6614,8.118e-05,1.005e-05,0.0,0 STARLINK-3707,1 52133U 22029AX  24193.50486528  .00001005  00000-0  81180-4 0  9994,2 52133  53.2163 270.3943 0001257  95.4522 264.6614 15.08846230129420,6917.861,95.437,540.596,538.857,0.0
52133.0,STARLINK-3707,PAYLOAD,2024-07-12 05:36:15,15.08836989,0.0001169,53.2163,267.1226,90.0316,270.081,8.8689e-05,1.124e-05,0.0,0 STARLINK-3707,1 52133U 22029AX  24194.23351304  .00001124  00000-0  88689-4 0  9991,2 52133  53.2163 267.1226 0001169  90.0316 270.0810 15.08836989129533,6917.89,95.438,540.563,538.946,0.0
52133.0,STARLINK-3707,PAYLOAD,2024-07-12 11:57:48,15.08837035,0.00012,53.216,265.9338,86.6741,273.4389,8.1688e-05,1.012e-05,0.0,0 STARLINK-3707,1 52133U 22029AX  24194.49847422  .00001012  00000-0  81688-4 0  9998,2 52133  53.2160 265.9338 0001200  86.6741 273.4389 15.08837035129574,6917.889,95.438,540.585,538.924,0.0
52133.0,STARLINK-3707,PAYLOAD,2024-07-12 21:30:07,15.08836187,0.0001294,53.2162,264.1506,89.5066,270.6075,4.588e-05,4.42e-06,0.0,0 STARLINK-3707,1 52133U 22029AX  24194.89591655  .00000442  00000-0  45880-4 0  9996,2 52133  53.2162 264.1506 0001294  89.5066 270.6075 15.08836187129634,6917.892,95.438,540.652,538.862,0.0
52133.0,STARLINK-3707,PAYLOAD,2024-07-13 11:48:35,15.08844061,0.0001299,53.2162,261.4746,96.7985,263.3155,2.0215e-05,3.4e-07,0.0,0 STARLINK-3707,1 52133U 22029AX  24195.49207300  .00000034  00000-0  20215-4 0  9996,2 52133  53.2162 261.4746 0001299  96.7985 263.3155 15.08844061129723,6917.868,95.437,540.632,538.834,0.0
52133.0,STARLINK-3707,PAYLOAD,2024-07-13 21:20:53,15.08848544,0.0001512,53.2158,259.6901,123.472,236.6417,-1.168e-05,-4.74e-06,0.0,0 STARLINK-3707,1 52133U 22029AX  24195.88950962 -.00000474  00000-0 -11680-4 0  9994,2 52133  53.2158 259.6901 0001512 123.4720 236.6417 15.08848544129783,6917.854,95.437,540.765,538.673,0.0
52133.0,STARLINK-3707,PAYLOAD,2024-07-14 11:39:22,15.08840207,0.0001419,53.216,257.0138,84.9137,275.2017,6.6548e-05,7.71e-06,0.0,0 STARLINK-3707,1 52133U 22029AX  24196.48567478  .00000771  00000-0  66548-4 0  9998,2 52133  53.2160 257.0138 0001419  84.9137 275.2017 15.08840207129872,6917.88,95.438,540.726,538.763,0.0
52133.0,STARLINK-3707,PAYLOAD,2024-07-15 11:30:09,15.08842166,0.0001417,53.2156,252.5538,92.4045,267.7109,9.2098e-05,1.178e-05,0.0,0 STARLINK-3707,1 52133U 22029AX  24197.47927391  .00001178  00000-0  92098-4 0  9993,2 52133  53.2156 252.5538 0001417  92.4045 267.7109 15.08842166130024,6917.874,95.437,540.719,538.759,0.0
52133.0,STARLINK-3707,PAYLOAD,2024-07-15 21:02:28,15.08843066,0.0001354,53.2156,250.7681,83.5857,276.5289,3.8821e-05,3.3e-06,0.0,0 STARLINK-3707,1 52133U 22029AX  24197.87671303  .00000330  00000-0  38821-4 0  9999,2 52133  53.2156 250.7681 0001354  83.5857 276.5289 15.08843066130088,6917.871,95.437,540.673,538.799,0.0
52133.0,STARLINK-3707,PAYLOAD,2024-07-16 03:24:00,15.08840597,0.0001426,53.2156,249.5795,83.4229,276.6926,2.8438e-05,1.65e-06,0.0,0 STARLINK-3707,1 52133U 22029AX  24198.14167505  .00000165  00000-0  28438-4 0  9993,2 52133  53.2156 249.5795 0001426  83.4229 276.6926 15.08840597130122,6917.879,95.438,540.73,538.757,0.0
52133.0,STARLINK-3707,PAYLOAD,2024-07-16 09:45:33,15.08836556,0.0001382,53.2155,248.3901,87.8697,272.2453,0.00011677,1.571e-05,0.0,0 STARLINK-3707,1 52133U 22029AX  24198.40663463  .00001571  00000-0  11677-3 0  9994,2 52133  53.2155 248.3901 0001382  87.8697 272.2453 15.08836556130166,6917.891,95.438,540.712,538.8,0.0
52133.0,STARLINK-3707,PAYLOAD,2024-07-17 09:36:20,15.08841747,0.0001352,53.2151,243.928,87.6608,272.4539,-1.0805e-05,-4.6e-06,0.0,0 STARLINK-3707,1 52133U 22029AX  24199.40023457 -.00000460  00000-0 -10805-4 0  9999,2 52133  53.2151 243.9280 0001352  87.6608 272.4539 15.08841747130312,6917.875,95.437,540.675,538.805,0.0
52133.0,STARLINK-3707,PAYLOAD,2024-07-18 09:27:07,15.08834883,0.0001375,53.2167,239.4669,90.9233,269.1917,5.8404e-05,6.42e-06,0.0,0 STARLINK-3707,1 52133U 22029AX  24200.39383862  .00000642  00000-0  58404-4 0  9996,2 52133  53.2167 239.4669 0001375  90.9233 269.1917 15.08834883130468,6917.896,95.438,540.712,538.81,0.0
52133.0,STARLINK-3707,PAYLOAD,2024-07-19 09:17:54,15.08840543,0.0001366,53.2161,235.0056,87.5158,272.599,8.2184e-05,1.02e-05,0.0,0 STARLINK-3707,1 52133U 22029AX  24201.38743613  .00001020  00000-0  82184-4 0  9993,2 52133  53.2161 235.0056 0001366  87.5158 272.5990 15.08840543130618,6917.879,95.438,540.689,538.799,0.0
52133.0,STARLINK-3707,PAYLOAD,2024-07-19 18:50:13,15.08839716,0.0001329,53.2149,233.2221,84.6266,275.4878,4.1677e-05,3.75e-06,0.0,0 STARLINK-3707,1 52133U 22029AX  24201.78487707  .00000375  00000-0  41677-4 0  9990,2 52133  53.2149 233.2221 0001329  84.6266 275.4878 15.08839716130678,6917.881,95.438,540.666,538.827,0.0
52133.0,STARLINK-3707,PAYLOAD,2024-07-20 09:08:42,15.08831346,0.0001426,53.2156,230.5467,91.4728,268.6427,2.663e-05,1.36e-06,0.0,0 STARLINK-3707,1 52133U 22029AX  24202.38104556  .00000136  00000-0  26630-4 0  9992,2 52133  53.2156 230.5467 0001426  91.4728 268.6427 15.08831346130760,6917.907,95.438,540.758,538.785,0.0
52133.0,STARLINK-3707,PAYLOAD,2024-07-20 18:41:01,15.08834168,0.0001435,53.2157,228.7624,91.2205,268.8951,3.8565e-05,3.26e-06,0.0,0 STARLINK-3707,1 52133U 22029AX  24202.77848541  .00000326  00000-0  38565-4 0  9995,2 52133  53.2157 228.7624 0001435  91.2205 268.8951 15.08834168130829,6917.898,95.438,540.756,538.77,0.0
